HIMAWARI-8              
1 40267U 14060A   24068.18052457 -.00000284  00000+0  00000+0 0  9995
2 40267   0.0310 210.3565 0000899 156.0062   5.6310  1.00269638 34538
